{
  "norad_id": 54192,
  "name": "STARLINK-5268",
  "history": [
    {
      "epoch": "2026-03-28T18:42:17.674272Z",
      "apogee_km": 540.6116293208061,
      "perigee_km": 538.8233639334276,
      "latitude_deg": -1.3461019722456194e-05,
      "longitude_deg": 161.38022797424912,
      "height_km": 540.642134634095,
      "semi_major_axis_km": 6917.8544966271165,
      "eccentricity": 0.00012925,
      "inclination_deg": 53.2168,
      "raan_deg": 268.1488,
      "arg_perigee_deg": 91.852,
      "mean_anomaly_deg": 268.262,
      "mean_motion_rev_day": 15.08848471
    },
    {
      "epoch": "2026-03-30T04:05:23.908704Z",
      "apogee_km": 540.6124202386045,
      "perigee_km": 538.8718818442039,
      "latitude_deg": -2.2365125818328646e-05,
      "longitude_deg": 12.988569267247147,
      "height_km": 540.6399790774047,
      "semi_major_axis_km": 6917.879151041404,
      "eccentricity": 0.0001258,
      "inclination_deg": 53.2166,
      "raan_deg": 261.9042,
      "arg_perigee_deg": 90.1358,
      "mean_anomaly_deg": 269.9778,
      "mean_motion_rev_day": 15.08840405
    },
    {
      "epoch": "2026-03-30T12:02:19.912704Z",
      "apogee_km": 540.6395627634392,
      "perigee_km": 538.8709344311628,
      "latitude_deg": -4.644539627152537e-05,
      "longitude_deg": -108.0575475667415,
      "height_km": 540.6701229655894,
      "semi_major_axis_km": 6917.892248597301,
      "eccentricity": 0.00012783,
      "inclination_deg": 53.2169,
      "raan_deg": 260.4179,
      "arg_perigee_deg": 91.2378,
      "mean_anomaly_deg": 268.876,
      "mean_motion_rev_day": 15.0883612
    },
    {
      "epoch": "2026-03-30T19:59:15.559008Z",
      "apogee_km": 540.6413486232886,
      "perigee_km": 538.8634510475313,
      "latitude_deg": -2.8599492137325546e-05,
      "longitude_deg": 130.89736125338118,
      "height_km": 540.6648152741162,
      "semi_major_axis_km": 6917.88939983541,
      "eccentricity": 0.0001285,
      "inclination_deg": 53.2171,
      "raan_deg": 258.9311,
      "arg_perigee_deg": 91.0722,
      "mean_anomaly_deg": 269.0417,
      "mean_motion_rev_day": 15.08837052
    },
    {
      "epoch": "2026-03-31T19:50:02.278464Z",
      "apogee_km": 540.6194356115739,
      "perigee_km": 538.8609112340891,
      "latitude_deg": -3.22401693172913e-05,
      "longitude_deg": 127.7629623082387,
      "height_km": 540.7009073103981,
      "semi_major_axis_km": 6917.877173422831,
      "eccentricity": 0.0001271,
      "inclination_deg": 53.2176,
      "raan_deg": 254.4707,
      "arg_perigee_deg": 94.2313,
      "mean_anomaly_deg": 265.8824,
      "mean_motion_rev_day": 15.08841052
    },
    {
      "epoch": "2026-04-01T10:08:30.958656Z",
      "apogee_km": 540.6153759286726,
      "perigee_km": 538.9080385277284,
      "latitude_deg": 4.128257531287263e-05,
      "longitude_deg": -90.12099037438277,
      "height_km": 540.6793582102157,
      "semi_major_axis_km": 6917.8987072282,
      "eccentricity": 0.0001234,
      "inclination_deg": 53.2169,
      "raan_deg": 251.7938,
      "arg_perigee_deg": 91.4655,
      "mean_anomaly_deg": 268.6479,
      "mean_motion_rev_day": 15.08834007
    },
    {
      "epoch": "2026-04-02T19:31:36.278976Z",
      "apogee_km": 540.5917952145892,
      "perigee_km": 538.8692462019326,
      "latitude_deg": -6.141325049359049e-05,
      "longitude_deg": 121.48970107077862,
      "height_km": 540.5242029601972,
      "semi_major_axis_km": 6917.867520708261,
      "eccentricity": 0.0001245,
      "inclination_deg": 53.2171,
      "raan_deg": 245.5478,
      "arg_perigee_deg": 83.1868,
      "mean_anomaly_deg": 276.9265,
      "mean_motion_rev_day": 15.0884421
    },
    {
      "epoch": "2026-04-02T19:31:36.279840Z",
      "apogee_km": 540.5916568572384,
      "perigee_km": 538.8693845592834,
      "latitude_deg": -5.957983209371337e-05,
      "longitude_deg": 121.48969882412315,
      "height_km": 540.5242193734591,
      "semi_major_axis_km": 6917.867520708261,
      "eccentricity": 0.00012448,
      "inclination_deg": 53.2171,
      "raan_deg": 245.5478,
      "arg_perigee_deg": 83.1868,
      "mean_anomaly_deg": 276.9265,
      "mean_motion_rev_day": 15.0884421
    },
    {
      "epoch": "2026-04-03T19:22:23.698272Z",
      "apogee_km": 540.6290378584863,
      "perigee_km": 538.8608272365263,
      "latitude_deg": -4.174064279135102e-05,
      "longitude_deg": 118.35139418939168,
      "height_km": 540.6602444125255,
      "semi_major_axis_km": 6917.881932547506,
      "eccentricity": 0.0001278,
      "inclination_deg": 53.2151,
      "raan_deg": 241.0864,
      "arg_perigee_deg": 91.2788,
      "mean_anomaly_deg": 268.835,
      "mean_motion_rev_day": 15.08839495
    },
    {
      "epoch": "2026-04-04T17:37:49.254240Z",
      "apogee_km": 540.7800347927669,
      "perigee_km": 538.7945905150355,
      "latitude_deg": 4.878557529259915e-05,
      "longitude_deg": 139.41801101760106,
      "height_km": 540.7278694144266,
      "semi_major_axis_km": 6917.9243126539,
      "eccentricity": 0.0001435,
      "inclination_deg": 53.2165,
      "raan_deg": 236.9235,
      "arg_perigee_deg": 92.6017,
      "mean_anomaly_deg": 267.514,
      "mean_motion_rev_day": 15.0882563
    }
  ]
}